IRIDIUM 36              
1 24967U 97056C   24308.60055800  .00002651  00000+0  88500-3 0  9993
2 24967  86.3933 267.7169 0002480  83.2960 276.8520 14.37186607419818
IRIDIUM 39              
1 25042U 97069D   24308.50843950  .00003389  00000+0  89557-3 0  9994
2 25042  86.3869 307.9047 0017427 347.9278  12.1505 14.48554932416286
IRIDIUM 38              
1 25043U 97069E   24308.56252962  .00002066  00000+0  68161-3 0  9997
2 25043  86.3942 328.1099 0004016 103.8878 256.2767 14.37669354413535
IRIDIUM 42              
1 25077U 97077A   24308.57275523  .00001900  00000+0  64846-3 0  9994
2 25077  86.3958 333.9963 0002724 101.3914 258.7589 14.35939703408811
IRIDIUM 44              
1 25078U 97077B   24308.57822764  .00002400  00000+0  75952-3 0  9996
2 25078  86.3922 316.5165 0003884  72.5037 287.6587 14.39793861411233
IRIDIUM 45              
1 25104U 97082A   24308.56299523  .00034919  00000+0  16290-2 0  9991
2 25104  86.3647 156.4622 0144800  89.7613 272.0216 15.10761021417843
IRIDIUM 24              
1 25105U 97082B   24308.56146837  .00002131  00000+0  64814-3 0  9998
2 25105  86.3955 175.9156 0013434 100.6393 259.6320 14.41629197410705
IRIDIUM 51              
1 25262U 98018A   24308.57207262  .00046445  00000+0  16948-2 0  9993
2 25262  86.3931 165.8331 0125285  26.7737 333.9898 15.20768467412524
